STARLINK-1280           
1 45388U 20019AE  21252.64663721 -.00000473  00000-0 -12854-4 0  9997
2 45388  53.0555 338.0393 0001009 118.6024 241.5067 15.06397557 82221
STARLINK-1283           
1 45389U 20019AF  21253.55522181 -.00000002  00000-0  18752-4 0  9993
2 45389  53.0539 313.9558 0000921 109.3669 250.7419 15.06396594 82653
STARLINK-1284           
1 45390U 20019AG  21253.26402238  .00001054  00000-0  89641-4 0  9995
2 45390  53.0557 315.2743 0000801 115.7325 244.3746 15.06403588 82602
STARLINK-1289           
1 45391U 20019AH  21253.67686208 -.00000983  00000-0 -47127-4 0  9997
2 45391  53.0552 313.4165 0000839 105.8338 254.2744 15.06393590 82396
STARLINK-1290           
1 45392U 20019AJ  21253.68385550  .00003919  00000-0  27354-3 0  9994
2 45392  52.9937 310.8456 0000924 169.1321 190.9688 15.07526731 82407
STARLINK-1291           
1 45393U 20019AK  21253.57364486  .00001386  00000-0  11188-3 0  9992
2 45393  53.0544 313.8874 0000675 107.7025 252.4038 15.06405977 82414
STARLINK-1292           
1 45394U 20019AL  21253.53679072 -.00000179  00000-0  68690-5 0  9991
2 45394  53.0549 314.0498 0000861  98.0544 262.0543 15.06399521 82381
STARLINK-1297           
1 45395U 20019AM  21253.23454465  .00000089  00000-0  24842-4 0  9995
2 45395  53.0553 315.4105 0000746 131.3407 228.7646 15.06398234 81784
STARLINK-1303           
1 45396U 20019AN  21253.68054101 -.00000365  00000-0 -56297-5 0  9997
2 45396  53.0544 313.4055 0000732 116.4124 243.6940 15.06399088 82380
STARLINK-1307           
1 45397U 20019AP  21253.55891217  .00003013  00000-0  22118-3 0  9995
2 45397  53.0542 313.9528 0001052 119.0932 241.0163 15.06379724 82475
STARLINK-1312           
1 45398U 20019AQ  21253.55153730 -.00000236  00000-0  30556-5 0  9999
2 45398  53.0542 313.9835 0000655  99.2092 260.8971 15.06392283 82405
STARLINK-1255           
1 45399U 20019AR  21253.65936120 -.00000606  00000-0 -21815-4 0  9992
2 45399  53.0539 303.5011 0000938  71.5068 288.6023 15.06387450 82612
STARLINK-1213           
1 45400U 20019AS  21252.54620221  .00000069  00000-0  23540-4 0  9992
2 45400  53.0546 308.4975 0000714 131.3524 228.7526 15.06390558 82379
STARLINK-1256           
1 45401U 20019AT  21253.60405745 -.00000078  00000-0  13619-4 0  9990
2 45401  53.0537 303.7460 0000751 106.2800 253.8272 15.06398137 82600
STARLINK-1257           
1 45402U 20019AU  21253.66672184 -.00000297  00000-0 -10583-5 0  9992
2 45402  53.0544 303.4591 0000878 104.1210 255.9876 15.06398128 82628
STARLINK-1259           
1 45403U 20019AV  21253.54877037 -.00000763  00000-0 -32371-4 0  9990
2 45403  53.0550 303.9941 0000727 114.6241 245.4824 15.06393960 82595
STARLINK-1260           
1 45404U 20019AW  21253.62617513  .00000764  00000-0  70171-4 0  9990
2 45404  53.0536 303.6483 0000806  98.1726 261.9355 15.06393363 82511
STARLINK-1263           
1 45405U 20019AX  21253.61143098 -.00000559  00000-0 -18677-4 0  9999
2 45405  53.0554 303.7158 0000734 108.1343 251.9726 15.06397698 82515
STARLINK-1265           
1 45406U 20019AY  21253.61879958  .00001771  00000-0  13770-3 0  9994
2 45406  53.0542 303.6726 0000669 109.8370 250.2691 15.06405611 82516
STARLINK-1275           
1 45407U 20019AZ  21253.63355253 -.00000734  00000-0 -30403-4 0  9997
2 45407  53.0552 303.6092 0000554 115.2611 244.8435 15.06391659 82517
STARLINK-1278           
1 45408U 20019BA  21253.71186515 -.00000049  00000-0  15607-4 0  9997
2 45408  53.0547 333.2654 0001016 114.3967 245.7128 15.06404301 82117
STARLINK-1282           
1 45409U 20019BB  21253.50825541  .00030236  00000-0  20488-2 0  9995
2 45409  53.0556 304.1763 0001737 174.8881 185.2126 15.06241129 82508
STARLINK-1285           
1 45410U 20019BC  21253.53643586  .00004553  00000-0  39562-4 0  9995
2 45410  53.0576 272.3865 0002583  35.8278 324.2912 15.71454603 82937
STARLINK-1293           
1 45411U 20019BD  21253.65566679 -.00000667  00000-0 -25901-4 0  9992
2 45411  53.0542 303.5089 0000570 117.7191 242.3856 15.06391055 82547
STARLINK-1296           
1 45412U 20019BE  21254.00001157  .00002893  00000-0  21305-3 0  9992
2 45412  53.0543 301.9665 0000652 111.7345 136.8523 15.06391188  3602
STARLINK-1298           
1 45413U 20019BF  21253.65198564  .00000292  00000-0  38509-4 0  9998
2 45413  53.0560 303.5335 0000743  59.3683 300.7379 15.06387602 82612
STARLINK-1309           
1 45414U 20019BG  21253.57089037 -.00000608  00000-0 -21930-4 0  9997
2 45414  53.0557 303.8967 0000945 118.0787 242.0298 15.06393499 82490
STARLINK-1316           
1 45415U 20019BH  21253.53032831 -.00004916  00000-0 -31117-3 0  9997
2 45415  53.0529 304.0806 0000769 144.4695 215.6345 15.06423678 82526
STARLINK-1318           
1 45416U 20019BJ  21253.62986246 -.00000728  00000-0 -29975-4 0  9993
2 45416  53.0540 303.6306 0000892 107.6567 252.4520 15.06396557 82525
STARLINK-1286           
1 45417U 20019BK  21253.43543559 -.00000603  00000-0 -21615-4 0  9994
2 45417  53.0564 334.5051 0000809 102.2127 257.8952 15.06390615 82340
STARLINK-1299           
1 45418U 20019BL  21253.76339998  .00002429  00000-0  20952-3 0  9999
2 45418  53.0027 349.0109 0001298  98.9709 261.1424 15.00893184 81894
STARLINK-1308           
1 45419U 20019BM  21253.63077785  .00000219  00000-0  33558-4 0  9991
2 45419  53.0543 333.6301 0000943 118.5522 241.5562 15.06400906 82123
ONEWEB-0066             
1 45424U 20020A   21253.81459669 -.00000487  00000-0 -14087-2 0  9997
2 45424  87.8963   7.0864 0000993 124.8991 235.2231 13.11418600 74578
ONEWEB-0067             
1 45425U 20020B   21253.84078051  .00000476  00000-0  13077-2 0  9997
2 45425  87.8963   7.0880 0001544  95.1839 264.9465 13.11417606 74631
ONEWEB-0080             
1 45426U 20020C   21253.86693038 -.00000089  00000-0 -28603-3 0  9992
2 45426  87.8963   7.0676 0002063 105.5620 254.5736 13.11414522 74603
ONEWEB-0090             
1 45427U 20020D   21253.88217985 -.00000527  00000-0 -15236-2 0  9992
2 45427  87.8971   7.0927 0001788 100.4759 259.6571 13.11417116 74573
ONEWEB-0061             
1 45428U 20020E   21253.83860875  .00000489  00000-0  13440-2 0  9990
2 45428  87.8966   7.0602 0001488  94.0549 266.0749 13.11417022 74520
ONEWEB-0081             
1 45429U 20020F   21253.82115780 -.00000225  00000-0 -67057-3 0  9992
2 45429  87.8978   7.0405 0001216  92.3893 267.7374 13.11417011 74639
ONEWEB-0069             
1 45430U 20020G   21253.88437998 -.00000619  00000-0 -17835-2 0  9993
2 45430  87.8966   7.0786 0001712  99.6078 260.5243 13.11415004 74575
ONEWEB-0031             
1 45431U 20020H   21253.85821041  .00000225  00000-0  59769-3 0  9991
2 45431  87.8961   7.0769 0001880  95.9111 264.2232 13.11415307 74558
ONEWEB-0027             
1 45432U 20020J   21253.78370408  .00000043  00000-0  77432-4 0  9996
2 45432  87.9194 351.9426 0001788 108.6467 251.4859 13.17647166 77161
ONEWEB-0064             
1 45433U 20020K   21253.85604205  .00000333  00000-0  90262-3 0  9997
2 45433  87.8965   7.0906 0001576 128.2958 231.8312 13.11415454 74583
ONEWEB-0018             
1 45434U 20020L   21253.81025439 -.00000509  00000-0 -14733-2 0  9995
2 45434  87.8964   7.0769 0001900  94.4048 265.7297 13.11416409 74528
ONEWEB-0083             
1 45435U 20020M   21253.87564403 -.00000449  00000-0 -13036-2 0  9999
2 45435  87.8963   7.0701 0001743  97.7738 262.3588 13.11414577 74576
ONEWEB-0095             
1 45436U 20020N   21253.86038738  .00000165  00000-0  43117-3 0  9993
2 45436  87.8963   7.0738 0001886 107.0944 253.0391 13.11414987 74573
ONEWEB-0092             
1 45437U 20020P   21253.83642338  .00000396  00000-0  10807-2 0  9993
2 45437  87.8977   7.0322 0002019  85.5916 274.5442 13.11416789 74685
ONEWEB-0085             
1 45438U 20020Q   21253.86910061 -.00000187  00000-0 -56299-3 0  9994
2 45438  87.8964   7.0885 0001475  98.8981 261.2313 13.11415403 74570
ONEWEB-0096             
1 45439U 20020R   21253.87783426 -.00000500  00000-0 -14468-2 0  9999
2 45439  87.8962   7.0739 0001351  93.7791 266.3492 13.11416396 74568
ONEWEB-0037             
1 45440U 20020S   21253.86259176  .00000084  00000-0  20069-3 0  9990
2 45440  87.8961   7.0856 0002258  89.0476 271.0910 13.11411996 74596
ONEWEB-0042             
1 45441U 20020T   21253.84514021  .00000530  00000-0  14587-2 0  9995
2 45441  87.8966   7.0816 0001765  91.3428 268.7902 13.11417605 74567
ONEWEB-0098             
1 45442U 20020U   21253.86476590  .00000004  00000-0 -23768-4 0  9996
2 45442  87.8961   7.0797 0001426 102.7654 257.3634 13.11414467 74540
ONEWEB-0055             
1 45443U 20020V   21253.84949334  .00000493  00000-0  13558-2 0  9991
2 45443  87.8974   7.0370 0001675 100.5623 259.5693 13.11416099 74519
ONEWEB-0093             
1 45444U 20020W   21253.82552643 -.00000018  00000-0 -85415-4 0  9991
2 45444  87.8967   7.0900 0001769  99.6644 260.4684 13.11418879 74571
ONEWEB-0029             
1 45445U 20020X   21253.84731270  .00000514  00000-0  14158-2 0  9992
2 45445  87.8967   7.0654 0001737  86.4450 273.6877 13.11416509 74558
ONEWEB-0068             
1 45446U 20020Y   21253.81679086 -.00000361  00000-0 -10549-2 0  9998
2 45446  87.8966   7.0901 0001431 104.5733 255.5553 13.11419144 74491
ONEWEB-0046             
1 45447U 20020Z   21253.81243980 -.00000442  00000-0 -12818-2 0  9990
2 45447  87.8965   7.0963 0002040  93.6189 266.5172 13.11418519 74505
ONEWEB-0063             
1 45448U 20020AA  21253.84297843  .00000490  00000-0  13475-2 0  9992
2 45448  87.8961   7.0918 0002094  91.4531 268.6837 13.11416782 74598
ONEWEB-0019             
1 45449U 20020AB  21253.81897890 -.00000238  00000-0 -70707-3 0  9992
2 45449  87.8969   7.0717 0001865 103.0692 257.0644 13.11420081 74435
ONEWEB-0094             
1 45450U 20020AC  21253.78522827 -.00000211  00000-0 -57694-3 0  9996
2 45450  87.9175 351.8816 0001740 105.8006 254.3318 13.17649892 77113
